STARLINK-1801
1 46701U 20073AH  26092.83335647  .00262761  00000+0  14391-2 0  9991
2 46701  53.0410  77.7488 0003054 330.5697 343.7545 15.78541303  5541
